IXPE                    
1 49954U 21121A   24293.91667824  .00009651  00000+0  67384-3 0  9992
2 49954   0.2279 186.1137 0009119 336.6141 140.5553 15.00784376156651
